OBJECT_NAME,OBJECT_ID,EPOCH,MEAN_MOTION,ECCENTRICITY,INCLINATION,RA_OF_ASC_NODE,ARG_OF_PERICENTER,MEAN_ANOMALY,EPHEMERIS_TYPE,CLASSIFICATION_TYPE,NORAD_CAT_ID,ELEMENT_SET_NO,REV_AT_EPOCH,BSTAR,MEAN_MOTION_DOT,MEAN_MOTION_DDOT
STARLINK-11252 [DTC],2024-164B,2026-07-12T21:22:16.596768,15.69712185,.00009776,53.1590,54.0348,106.0946,254.0180,0,U,61051,999,10508,.11709435E-4,.83E-5,0
STARLINK-11230 [DTC],2024-164D,2026-07-12T21:08:08.844288,15.69711475,.00009636,53.1588,53.9687,116.4281,243.6835,0,U,61053,999,10508,.13453095E-4,.1042E-4,0
STARLINK-11294 [DTC],2024-164E,2026-07-13T00:04:26.849856,15.69715900,.00007628,53.1576,53.3097,105.5141,254.5961,0,U,61054,999,10510,.14462496E-4,.1165E-4,0
STARLINK-11268 [DTC],2024-164F,2026-07-12T23:57:22.975776,15.69718719,.0001209,53.1590,53.2758,110.0425,250.0723,0,U,61055,999,10510,.15550195E-4,.1296E-4,0
STARLINK-11156 [DTC],2024-164G,2026-07-12T20:45:01.999008,15.68838628,.00012911,53.1603,53.8584,104.4034,255.7126,0,U,61056,999,10508,.5638652E-5,.77E-6,0
STARLINK-11231 [DTC],2024-164H,2026-07-13T01:15:05.218272,15.69717854,.00011811,53.1603,53.6295,98.3868,261.7284,0,U,61057,999,10510,.20936507E-4,.1949E-4,0
STARLINK-11299 [DTC],2024-164J,2026-07-12T22:04:39.659808,15.69711226,.00008411,53.1587,54.2276,90.4710,269.6405,0,U,61058,999,10508,.9267939E-5,.535E-5,0
STARLINK-11154 [DTC],2024-164K,2026-07-13T01:00:57.381120,15.69716125,.00008753,53.1586,53.5666,92.4759,267.6360,0,U,61059,999,10510,.11992753E-4,.865E-5,0
STARLINK-11297 [DTC],2024-164L,2026-07-12T20:18:51.035328,15.69710994,.00008273,53.1591,54.4762,74.0852,286.0257,0,U,61060,999,10507,.14503775E-4,.1169E-4,0
STARLINK-11233 [DTC],2024-164M,2026-07-12T21:43:28.077312,15.69712842,.0001025,53.1590,54.1262,99.3591,260.7543,0,U,61061,999,10508,.13414461E-4,.1037E-4,0
STARLINK-11236 [DTC],2024-164N,2026-07-12T20:04:43.405536,15.69707276,.00009319,53.1589,54.4067,111.1307,248.9810,0,U,61062,999,10507,.6671899E-5,.22E-5,0
STARLINK-32350,2024-164P,2026-07-13T09:33:01.612512,15.31704346,.00012184,53.1579,226.5394,85.1799,274.9341,0,U,61063,999,10273,.53738435E-4,.1303E-4,0
STARLINK-32378,2024-164Q,2026-07-13T11:13:42.695328,15.31698381,.00011214,53.1585,226.2652,84.5543,275.5587,0,U,61064,999,10274,.12355588E-4,.18E-6,0
STARLINK-32321,2024-164R,2026-07-13T11:18:41.362848,15.30192664,.00011841,53.1596,226.9954,84.0505,276.0630,0,U,61065,999,10273,.39152253E-4,.8E-5,0
STARLINK-32381,2024-164S,2026-07-13T09:59:48.502176,15.30199178,.00011032,53.1599,227.3593,78.6745,281.4380,0,U,61066,999,10272,.7255626E-4,.179E-4,0
STARLINK-32385,2024-164U,2026-07-13T09:53:11.370624,15.31702252,.0001256,53.1586,226.6276,67.1984,292.9150,0,U,61068,999,10273,.1337197E-5,-.324E-5,0
STARLINK-32380,2024-164V,2026-07-13T14:28:21.785952,15.31703040,.00011421,53.1591,225.6853,81.1118,279.0012,0,U,61069,999,10276,.47462513E-4,.1108E-4,0
STARLINK-32375,2024-164W,2026-07-13T11:23:18.699936,15.30134928,.00013845,53.1588,227.0100,38.6033,321.5066,0,U,61070,999,10273,.10187741E-2,.29875E-3,0
CHAMRAN-1,2024-165B,2026-07-13T11:27:00.378144,15.11281476,.0055957,64.0770,315.6944,305.2653,54.3234,0,U,61072,999,10063,.12951E-3,.2063E-4,0
2024-166B,2024-166B,2026-07-13T17:03:02.178432,15.75451767,.0006055,96.6767,84.9201,133.0396,227.1379,0,U,61180,999,10491,.96887E-4,.14541E-3,0
GSAT0232 (GALILEO 32),2024-167A,2026-07-13T03:58:19.942176,1.70473982,.00064915,55.1798,220.6008,230.8741,201.3532,0,U,61182,999,1132,0,.78E-6,0
GSAT0226 (GALILEO 31),2024-167B,2026-07-12T07:31:49.345248,1.70473923,.00032197,55.1789,220.6314,234.7446,126.0816,0,U,61183,999,1128,0,.85E-6,0
BEIDOU-3 M25,2024-168B,2026-07-13T07:44:13.893792,1.86229790,.00032866,54.4484,301.3340,291.8213,128.4471,0,U,61186,999,1227,0,-.66E-6,0
BEIDOU-3 M27,2024-168C,2026-07-12T10:33:58.218624,1.86229847,.00009408,54.4448,301.3475,49.1078,274.7757,0,U,61187,999,972,0,-.66E-6,0
JILIN-01 KUANFU 02B 1,2024-169A,2026-07-13T13:48:14.529888,15.09052692,.00015963,97.5582,283.6922,353.0237,7.0970,0,U,61189,999,9980,.11841442E-3,.1812E-4,0
JILIN-01 KUANFU 02B 2,2024-169B,2026-07-13T14:54:19.164960,15.09012381,.00047985,97.5571,283.1224,286.3302,73.7399,0,U,61190,999,9981,.96410994E-4,.1462E-4,0
JILIN-01 KUANFU 02B 3,2024-169C,2026-07-13T13:31:46.266816,15.09051648,.0012897,97.5569,283.4988,211.1586,148.8880,0,U,61191,999,9980,.98409831E-4,.1497E-4,0
JILIN-01 KUANFU 02B 4,2024-169D,2026-07-13T14:22:16.564512,15.09035358,.00138704,97.5533,283.0604,169.2625,190.8903,0,U,61192,999,9981,.17141076E-3,.2654E-4,0
JILIN-01 KUANFU 02B 5,2024-169E,2026-07-13T14:03:39.080736,15.09070273,.00130704,97.5584,283.8435,192.7297,167.3604,0,U,61193,999,9981,.143892E-3,.2219E-4,0
JILIN-01 KUANFU 02B 6,2024-169F,2026-07-13T14:37:36.997536,15.09027410,.00154764,97.5559,283.7599,227.1454,132.8475,0,U,61194,999,9982,.12494135E-3,.1918E-4,0
