STARLINK-11252 [DTC]    
1 61051U 24164B   26193.89046987  .00000830  00000+0  11709-4 0  9994
2 61051  53.1590  54.0348 0000977 106.0946 254.0180 15.69712185105080
STARLINK-11230 [DTC]    
1 61053U 24164D   26193.88065792  .00001042  00000+0  13453-4 0  9994
2 61053  53.1588  53.9687 0000963 116.4281 243.6835 15.69711475105087
STARLINK-11294 [DTC]    
1 61054U 24164E   26194.00308854  .00001165  00000+0  14462-4 0  9996
2 61054  53.1576  53.3097 0000762 105.5141 254.5961 15.69715900105106
STARLINK-11268 [DTC]    
1 61055U 24164F   26193.99818259  .00001296  00000+0  15550-4 0  9993
2 61055  53.1590  53.2758 0001209 110.0425 250.0723 15.69718719105107
STARLINK-11156 [DTC]    
1 61056U 24164G   26193.86460647  .00000077  00000+0  56387-5 0  9994
2 61056  53.1603  53.8584 0001291 104.4034 255.7126 15.68838628105087
STARLINK-11231 [DTC]    
1 61057U 24164H   26194.05214373  .00001949  00000+0  20937-4 0  9990
2 61057  53.1603  53.6295 0001181  98.3868 261.7284 15.69717854105102
STARLINK-11299 [DTC]    
1 61058U 24164J   26193.91990347  .00000535  00000+0  92679-5 0  9990
2 61058  53.1587  54.2276 0000841  90.4710 269.6405 15.69711226105087
STARLINK-11154 [DTC]    
1 61059U 24164K   26194.04233080  .00000865  00000+0  11993-4 0  9995
2 61059  53.1586  53.5666 0000875  92.4759 267.6360 15.69716125105108
STARLINK-11297 [DTC]    
1 61060U 24164L   26193.84642402  .00001169  00000+0  14504-4 0  9995
2 61060  53.1591  54.4762 0000827  74.0852 286.0257 15.69710994105074
STARLINK-11233 [DTC]    
1 61061U 24164M   26193.90518608  .00001037  00000+0  13414-4 0  9996
2 61061  53.1590  54.1262 0001025  99.3591 260.7543 15.69712842105089
STARLINK-11236 [DTC]    
1 61062U 24164N   26193.83661349  .00000220  00000+0  66719-5 0  9990
2 61062  53.1589  54.4067 0000931 111.1307 248.9810 15.69707276105076
STARLINK-32350          
1 61063U 24164P   26194.39793533  .00001303  00000+0  53738-4 0  9993
2 61063  53.1579 226.5394 0001218  85.1799 274.9341 15.31704346102737
STARLINK-32378          
1 61064U 24164Q   26194.46785527  .00000018  00000+0  12356-4 0  9999
2 61064  53.1585 226.2652 0001121  84.5543 275.5587 15.31698381102743
STARLINK-32321          
1 61065U 24164R   26194.47131207  .00000800  00000+0  39152-4 0  9993
2 61065  53.1596 226.9954 0001184  84.0505 276.0630 15.30192664102736
STARLINK-32381          
1 61066U 24164S   26194.41653359  .00001790  00000+0  72556-4 0  9999
2 61066  53.1599 227.3593 0001103  78.6745 281.4380 15.30199178102728
STARLINK-32385          
1 61068U 24164U   26194.41193716 -.00000324  00000+0  13372-5 0  9992
2 61068  53.1586 226.6276 0001256  67.1984 292.9150 15.31702252102730
STARLINK-32380          
1 61069U 24164V   26194.60302993  .00001108  00000+0  47463-4 0  9990
2 61069  53.1591 225.6853 0001142  81.1118 279.0012 15.31703040102768
STARLINK-32375          
1 61070U 24164W   26194.47452199  .00029875  00000+0  10188-2 0  9994
2 61070  53.1588 227.0100 0001384  38.6033 321.5066 15.30134928102739
CHAMRAN-1               
1 61072U 24165B   26194.47708771  .00002063  00000+0  12951-3 0  9998
2 61072  64.0770 315.6944 0055957 305.2653  54.3234 15.11281476100636
2024-166B               
1 61180U 24166B   26194.71044188  .00014541  00000+0  96887-4 0  9996
2 61180  96.6767  84.9201 0006055 133.0396 227.1379 15.75451767104918
GSAT0232 (GALILEO 32)   
1 61182U 24167A   26194.16550859  .00000078  00000+0  00000+0 0  9992
2 61182  55.1798 220.6008 0006491 230.8741 201.3532  1.70473982 11322
GSAT0226 (GALILEO 31)   
1 61183U 24167B   26193.31376557  .00000085  00000+0  00000+0 0  9998
2 61183  55.1789 220.6314 0003219 234.7446 126.0816  1.70473923 11281
BEIDOU-3 M25            
1 61186U 24168B   26194.32238303 -.00000066  00000+0  00000+0 0  9990
2 61186  54.4484 301.3340 0003286 291.8213 128.4471  1.86229790 12275
BEIDOU-3 M27            
1 61187U 24168C   26193.44025716 -.00000066  00000+0  00000+0 0  9995
2 61187  54.4448 301.3475 0000940  49.1078 274.7757  1.86229847  9723
JILIN-01 KUANFU 02B 1   
1 61189U 24169A   26194.57516817  .00001812  00000+0  11841-3 0  9998
2 61189  97.5582 283.6922 0001596 353.0237   7.0970 15.09052692 99807
JILIN-01 KUANFU 02B 2   
1 61190U 24169B   26194.62105515  .00001462  00000+0  96411-4 0  9993
2 61190  97.5571 283.1224 0004798 286.3302  73.7399 15.09012381 99812
JILIN-01 KUANFU 02B 3   
1 61191U 24169C   26194.56372994  .00001497  00000+0  98410-4 0  9993
2 61191  97.5569 283.4988 0012897 211.1586 148.8880 15.09051648 99806
JILIN-01 KUANFU 02B 4   
1 61192U 24169D   26194.59880283  .00002654  00000+0  17141-3 0  9999
2 61192  97.5533 283.0604 0013870 169.2625 190.8903 15.09035358 99812
JILIN-01 KUANFU 02B 5   
1 61193U 24169E   26194.58586899  .00002219  00000+0  14389-3 0  9993
2 61193  97.5584 283.8435 0013070 192.7297 167.3604 15.09070273 99819
JILIN-01 KUANFU 02B 6   
1 61194U 24169F   26194.60945599  .00001918  00000+0  12494-3 0  9993
2 61194  97.5559 283.7599 0015476 227.1454 132.8475 15.09027410 99821
